IRIDIUM 36 [-]          
1 24967U 97056C   24045.43154928  .00001050  00000+0  35047-3 0  9993
2 24967  86.3985  18.2122 0002284  90.7788 269.3671 14.36628345382021
IRIDIUM 39 [-]          
1 25042U 97069D   24045.57414495  .00001424  00000+0  37976-3 0  9993
2 25042  86.3872  60.4399 0019982 132.1014 228.1892 14.47687354378235
IRIDIUM 38 [-]          
1 25043U 97069E   24045.61694024  .00000852  00000+0  28057-3 0  9991
2 25043  86.3909  78.5903 0000288  20.6474 339.4734 14.37092239375765
IRIDIUM 42 [-]          
1 25077U 97077A   24045.59360791  .00000827  00000+0  28166-3 0  9998
2 25077  86.3916  84.1782 0001562  91.1622 268.9753 14.35388335371083
IRIDIUM 44 [-]          
1 25078U 97077B   24045.60452114  .00000969  00000+0  30646-3 0  9995
2 25078  86.3907  67.3956 0002563 135.2477 224.8929 14.39205306373404
IRIDIUM 45 [-]          
1 25104U 97082A   24045.57292667  .00017892  00000+0  10874-2 0  9995
2 25104  86.3717 280.1221 0169244 328.8378  30.2900 14.99076840378311
IRIDIUM 24 [-]          
1 25105U 97082B   24045.63641335  .00000924  00000+0  28154-3 0  9992
2 25105  86.3891 287.2011 0009502 248.1682 111.8507 14.40983582372838
IRIDIUM 51 [-]          
1 25262U 98018A   24045.63215661  .00018577  00000+0  96003-3 0  9996
2 25262  86.3942 290.2787 0151679 277.2104  81.1909 15.06627550372780
